ONEWEB-0371             
1 49297U 21090U   25244.85858951  .00000010  00000+0 -85640-5 0  9998
2 49297  87.9276   2.2917 0001666  99.0839 261.0483 13.19724500188429
ONEWEB-0372             
1 49298U 21090V   25244.98251047  .00000130  00000+0  28862-3 0  9999
2 49298  87.9286 331.8936 0001825  96.4137 263.7204 13.20772134191794
ONEWEB-0373             
1 49299U 21090W   25244.78219298 -.00000032  00000+0 -10938-3 0  9998
2 49299  87.9291 331.9463 0001949 100.2918 259.8435 13.20769955192953
ONEWEB-0374             
1 49300U 21090X   25245.24126913 -.00000153  00000+0 -44685-3 0  9994
2 49300  87.9087 347.0189 0002337  91.0964 269.0433 13.14504422189734
ONEWEB-0375             
1 49301U 21090Y   25245.22410907  .00000017  00000+0  89417-5 0  9993
2 49301  87.9295 331.8379 0002510  99.5877 260.5540 13.20773558192517
ONEWEB-0376             
1 49302U 21090Z   25244.85702125 -.00000025  00000+0 -95412-4 0  9990
2 49302  87.9278   2.2737 0001586  93.4334 266.6981 13.19726611188426
ONEWEB-0377             
1 49303U 21090AA  25245.21006625  .00000059  00000+0  11376-3 0  9995
2 49303  87.9296 331.8349 0002000 106.3348 253.8005 13.20771506192502
ONEWEB-0378             
1 49304U 21090AB  25245.23212090  .00000038  00000+0  61744-4 0  9995
2 49304  87.9304 331.8425 0002010  97.9784 262.1577 13.20773828191772
